[{"OBJECT_NAME":"STARLINK-3935","OBJECT_ID":"2022-051S","EPOCH":"2025-08-07T20:29:47.000544","MEAN_MOTION":15.08840503,"ECCENTRICITY":0.0001337,"INCLINATION":53.2196,"RA_OF_ASC_NODE":9.0665,"ARG_OF_PERICENTER":86.578,"MEAN_ANOMALY":273.5366,"EPHEMERIS_TYPE":0,"CLASSIFICATION_TYPE":"U","NORAD_CAT_ID":52549,"ELEMENT_SET_NO":999,"REV_AT_EPOCH":17923,"BSTAR":2.9021e-5,"MEAN_MOTION_DOT":1.74e-6,"MEAN_MOTION_DDOT":0},{"OBJECT_NAME":"STARLINK-3965","OBJECT_ID":"2022-051T","EPOCH":"2025-08-07T15:27:43.167168","MEAN_MOTION":15.08831649,"ECCENTRICITY":0.0001567,"INCLINATION":53.2181,"RA_OF_ASC_NODE":10.0125,"ARG_OF_PERICENTER":72.2729,"MEAN_ANOMALY":287.8434,"EPHEMERIS_TYPE":0,"CLASSIFICATION_TYPE":"U","NORAD_CAT_ID":52550,"ELEMENT_SET_NO":999,"REV_AT_EPOCH":17920,"BSTAR":-1.6438e-5,"MEAN_MOTION_DOT":-5.5e-6,"MEAN_MOTION_DDOT":0},{"OBJECT_NAME":"STARLINK-3969","OBJECT_ID":"2022-051U","EPOCH":"2025-08-07T20:24:29.251584","MEAN_MOTION":15.08835543,"ECCENTRICITY":0.000128,"INCLINATION":53.2185,"RA_OF_ASC_NODE":9.0852,"ARG_OF_PERICENTER":90.3683,"MEAN_ANOMALY":269.7456,"EPHEMERIS_TYPE":0,"CLASSIFICATION_TYPE":"U","NORAD_CAT_ID":52551,"ELEMENT_SET_NO":999,"REV_AT_EPOCH":17923,"BSTAR":2.9007e-5,"MEAN_MOTION_DOT":1.74e-6,"MEAN_MOTION_DDOT":0},{"OBJECT_NAME":"STARLINK-3966","OBJECT_ID":"2022-051V","EPOCH":"2025-08-07T21:54:35.621856","MEAN_MOTION":15.08840562,"ECCENTRICITY":0.0001329,"INCLINATION":53.2183,"RA_OF_ASC_NODE":8.9585,"ARG_OF_PERICENTER":93.6371,"MEAN_ANOMALY":266.4773,"EPHEMERIS_TYPE":0,"CLASSIFICATION_TYPE":"U","NORAD_CAT_ID":52552,"ELEMENT_SET_NO":999,"REV_AT_EPOCH":17924,"BSTAR":5.3959e-5,"MEAN_MOTION_DOT":5.71e-6,"MEAN_MOTION_DDOT":0},{"OBJECT_NAME":"STARLINK-3858","OBJECT_ID":"2022-051W","EPOCH":"2025-08-07T16:20:39.596640","MEAN_MOTION":15.08838199,"ECCENTRICITY":0.0001172,"INCLINATION":53.2186,"RA_OF_ASC_NODE":9.5021,"ARG_OF_PERICENTER":85.6254,"MEAN_ANOMALY":274.4872,"EPHEMERIS_TYPE":0,"CLASSIFICATION_TYPE":"U","NORAD_CAT_ID":52553,"ELEMENT_SET_NO":999,"REV_AT_EPOCH":17921,"BSTAR":7.3324e-5,"MEAN_MOTION_DOT":8.79e-6,"MEAN_MOTION_DDOT":0},{"OBJECT_NAME":"STARLINK-3770","OBJECT_ID":"2022-051X","EPOCH":"2025-08-07T22:49:32.831616","MEAN_MOTION":15.08842338,"ECCENTRICITY":0.0001136,"INCLINATION":53.2182,"RA_OF_ASC_NODE":13.6286,"ARG_OF_PERICENTER":85.6303,"MEAN_ANOMALY":274.4819,"EPHEMERIS_TYPE":0,"CLASSIFICATION_TYPE":"U","NORAD_CAT_ID":52554,"ELEMENT_SET_NO":999,"REV_AT_EPOCH":17917,"BSTAR":5.7267e-5,"MEAN_MOTION_DOT":6.24e-6,"MEAN_MOTION_DDOT":0},{"OBJECT_NAME":"STARLINK-3949","OBJECT_ID":"2022-051Y","EPOCH":"2025-08-08T04:00:01.999584","MEAN_MOTION":15.88510099,"ECCENTRICITY":0.0008307,"INCLINATION":53.214,"RA_OF_ASC_NODE":274.5285,"ARG_OF_PERICENTER":334.0625,"MEAN_ANOMALY":114.9361,"EPHEMERIS_TYPE":0,"CLASSIFICATION_TYPE":"U","NORAD_CAT_ID":52555,"ELEMENT_SET_NO":999,"REV_AT_EPOCH":18060,"BSTAR":0.00082997,"MEAN_MOTION_DOT":0.00242598,"MEAN_MOTION_DDOT":0},{"OBJECT_NAME":"STARLINK-3763","OBJECT_ID":"2022-051Z","EPOCH":"2025-08-07T16:25:10.004448","MEAN_MOTION":15.43179059,"ECCENTRICITY":0.0002218,"INCLINATION":53.1891,"RA_OF_ASC_NODE":307.2302,"ARG_OF_PERICENTER":40.0152,"MEAN_ANOMALY":320.1018,"EPHEMERIS_TYPE":0,"CLASSIFICATION_TYPE":"U","NORAD_CAT_ID":52556,"ELEMENT_SET_NO":999,"REV_AT_EPOCH":18009,"BSTAR":0.00082515,"MEAN_MOTION_DOT":0.0003692,"MEAN_MOTION_DDOT":0},{"OBJECT_NAME":"STARLINK-3943","OBJECT_ID":"2022-051AA","EPOCH":"2025-08-07T21:28:04.293696","MEAN_MOTION":15.08841621,"ECCENTRICITY":0.0001331,"INCLINATION":53.2184,"RA_OF_ASC_NODE":8.886,"ARG_OF_PERICENTER":90.6555,"MEAN_ANOMALY":269.459,"EPHEMERIS_TYPE":0,"CLASSIFICATION_TYPE":"U","NORAD_CAT_ID":52557,"ELEMENT_SET_NO":999,"REV_AT_EPOCH":17924,"BSTAR":3.7911e-5,"MEAN_MOTION_DOT":3.16e-6,"MEAN_MOTION_DDOT":0},{"OBJECT_NAME":"STARLINK-3953","OBJECT_ID":"2022-051AC","EPOCH":"2025-08-07T21:45:19.531584","MEAN_MOTION":15.08841243,"ECCENTRICITY":0.0001212,"INCLINATION":53.2183,"RA_OF_ASC_NODE":359.012,"ARG_OF_PERICENTER":87.2345,"MEAN_ANOMALY":272.8786,"EPHEMERIS_TYPE":0,"CLASSIFICATION_TYPE":"U","NORAD_CAT_ID":52559,"ELEMENT_SET_NO":999,"REV_AT_EPOCH":17937,"BSTAR":4.4738e-5,"MEAN_MOTION_DOT":4.24e-6,"MEAN_MOTION_DDOT":0},{"OBJECT_NAME":"STARLINK-3956","OBJECT_ID":"2022-051AD","EPOCH":"2025-08-07T19:48:42.952896","MEAN_MOTION":15.08835028,"ECCENTRICITY":0.0001305,"INCLINATION":53.2189,"RA_OF_ASC_NODE":359.1949,"ARG_OF_PERICENTER":88.4386,"MEAN_ANOMALY":271.6755,"EPHEMERIS_TYPE":0,"CLASSIFICATION_TYPE":"U","NORAD_CAT_ID":52560,"ELEMENT_SET_NO":999,"REV_AT_EPOCH":17936,"BSTAR":4.3637e-5,"MEAN_MOTION_DOT":4.07e-6,"MEAN_MOTION_DDOT":0},{"OBJECT_NAME":"STARLINK-3955","OBJECT_ID":"2022-051AE","EPOCH":"2025-08-07T22:33:37.732320","MEAN_MOTION":15.08851591,"ECCENTRICITY":0.0001086,"INCLINATION":53.2181,"RA_OF_ASC_NODE":13.6778,"ARG_OF_PERICENTER":77.1687,"MEAN_ANOMALY":282.9426,"EPHEMERIS_TYPE":0,"CLASSIFICATION_TYPE":"U","NORAD_CAT_ID":52561,"ELEMENT_SET_NO":999,"REV_AT_EPOCH":17917,"BSTAR":0.00018478,"MEAN_MOTION_DOT":2.655e-5,"MEAN_MOTION_DDOT":0},{"OBJECT_NAME":"STARLINK-3957","OBJECT_ID":"2022-051AF","EPOCH":"2025-08-07T21:13:30.320544","MEAN_MOTION":15.08836463,"ECCENTRICITY":0.0001293,"INCLINATION":53.2189,"RA_OF_ASC_NODE":358.9302,"ARG_OF_PERICENTER":85.7079,"MEAN_ANOMALY":274.4061,"EPHEMERIS_TYPE":0,"CLASSIFICATION_TYPE":"U","NORAD_CAT_ID":52562,"ELEMENT_SET_NO":999,"REV_AT_EPOCH":17937,"BSTAR":4.5456e-5,"MEAN_MOTION_DOT":4.36e-6,"MEAN_MOTION_DDOT":0},{"OBJECT_NAME":"STARLINK-3942","OBJECT_ID":"2022-051AG","EPOCH":"2025-08-07T22:38:59.550720","MEAN_MOTION":15.08816538,"ECCENTRICITY":0.0001173,"INCLINATION":53.2182,"RA_OF_ASC_NODE":13.6643,"ARG_OF_PERICENTER":92.311,"MEAN_ANOMALY":267.8017,"EPHEMERIS_TYPE":0,"CLASSIFICATION_TYPE":"U","NORAD_CAT_ID":52563,"ELEMENT_SET_NO":999,"REV_AT_EPOCH":17917,"BSTAR":-0.0001052,"MEAN_MOTION_DOT":-1.961e-5,"MEAN_MOTION_DDOT":0},{"OBJECT_NAME":"STARLINK-3959","OBJECT_ID":"2022-051AH","EPOCH":"2025-08-07T20:54:20.900736","MEAN_MOTION":15.08837688,"ECCENTRICITY":0.0001267,"INCLINATION":53.218,"RA_OF_ASC_NODE":13.9996,"ARG_OF_PERICENTER":85.995,"MEAN_ANOMALY":274.1187,"EPHEMERIS_TYPE":0,"CLASSIFICATION_TYPE":"U","NORAD_CAT_ID":52564,"ELEMENT_SET_NO":999,"REV_AT_EPOCH":17916,"BSTAR":3.9429e-5,"MEAN_MOTION_DOT":3.4e-6,"MEAN_MOTION_DDOT":0},{"OBJECT_NAME":"STARLINK-3911","OBJECT_ID":"2022-051AJ","EPOCH":"2025-08-07T14:57:14.302080","MEAN_MOTION":15.08845237,"ECCENTRICITY":0.0001235,"INCLINATION":53.2183,"RA_OF_ASC_NODE":0.1039,"ARG_OF_PERICENTER":90.4431,"MEAN_ANOMALY":269.6703,"EPHEMERIS_TYPE":0,"CLASSIFICATION_TYPE":"U","NORAD_CAT_ID":52565,"ELEMENT_SET_NO":999,"REV_AT_EPOCH":17933,"BSTAR":0.00014334,"MEAN_MOTION_DOT":1.994e-5,"MEAN_MOTION_DDOT":0},{"OBJECT_NAME":"STARLINK-3938","OBJECT_ID":"2022-051AK","EPOCH":"2025-08-07T21:56:33.067104","MEAN_MOTION":15.08842448,"ECCENTRICITY":0.0001289,"INCLINATION":53.219,"RA_OF_ASC_NODE":13.7965,"ARG_OF_PERICENTER":97.3529,"MEAN_ANOMALY":262.761,"EPHEMERIS_TYPE":0,"CLASSIFICATION_TYPE":"U","NORAD_CAT_ID":52566,"ELEMENT_SET_NO":999,"REV_AT_EPOCH":17917,"BSTAR":1.9046e-5,"MEAN_MOTION_DOT":1.5e-7,"MEAN_MOTION_DDOT":0},{"OBJECT_NAME":"STARLINK-3929","OBJECT_ID":"2022-051AL","EPOCH":"2025-08-07T21:08:11.478624","MEAN_MOTION":15.088428,"ECCENTRICITY":0.000129,"INCLINATION":53.2191,"RA_OF_ASC_NODE":358.9486,"ARG_OF_PERICENTER":86.9303,"MEAN_ANOMALY":273.1836,"EPHEMERIS_TYPE":0,"CLASSIFICATION_TYPE":"U","NORAD_CAT_ID":52567,"ELEMENT_SET_NO":999,"REV_AT_EPOCH":17937,"BSTAR":7.6287e-5,"MEAN_MOTION_DOT":9.27e-6,"MEAN_MOTION_DDOT":0},{"OBJECT_NAME":"STARLINK-3930","OBJECT_ID":"2022-051AM","EPOCH":"2025-08-07T20:52:18.144480","MEAN_MOTION":15.08839108,"ECCENTRICITY":0.0001178,"INCLINATION":53.219,"RA_OF_ASC_NODE":358.9961,"ARG_OF_PERICENTER":89.9617,"MEAN_ANOMALY":270.1511,"EPHEMERIS_TYPE":0,"CLASSIFICATION_TYPE":"U","NORAD_CAT_ID":52568,"ELEMENT_SET_NO":999,"REV_AT_EPOCH":17937,"BSTAR":4.4054e-5,"MEAN_MOTION_DOT":4.13e-6,"MEAN_MOTION_DDOT":0},{"OBJECT_NAME":"STARLINK-3927","OBJECT_ID":"2022-051AN","EPOCH":"2025-08-07T21:02:53.872224","MEAN_MOTION":15.08830973,"ECCENTRICITY":0.0001275,"INCLINATION":53.219,"RA_OF_ASC_NODE":358.9644,"ARG_OF_PERICENTER":95.4998,"MEAN_ANOMALY":264.6139,"EPHEMERIS_TYPE":0,"CLASSIFICATION_TYPE":"U","NORAD_CAT_ID":52569,"ELEMENT_SET_NO":999,"REV_AT_EPOCH":17937,"BSTAR":-4.7403e-5,"MEAN_MOTION_DOT":-1.042e-5,"MEAN_MOTION_DDOT":0},{"OBJECT_NAME":"STARLINK-3901","OBJECT_ID":"2022-051AQ","EPOCH":"2025-08-07T20:57:36.282240","MEAN_MOTION":15.08834706,"ECCENTRICITY":0.000143,"INCLINATION":53.2192,"RA_OF_ASC_NODE":358.9785,"ARG_OF_PERICENTER":101.5916,"MEAN_ANOMALY":258.5237,"EPHEMERIS_TYPE":0,"CLASSIFICATION_TYPE":"U","NORAD_CAT_ID":52574,"ELEMENT_SET_NO":999,"REV_AT_EPOCH":17937,"BSTAR":5.4049e-5,"MEAN_MOTION_DOT":5.72e-6,"MEAN_MOTION_DDOT":0},{"OBJECT_NAME":"STARLINK-3920","OBJECT_ID":"2022-051AR","EPOCH":"2025-08-08T04:00:01.999584","MEAN_MOTION":15.28574137,"ECCENTRICITY":0.0001077,"INCLINATION":53.2181,"RA_OF_ASC_NODE":355.5818,"ARG_OF_PERICENTER":104.2456,"MEAN_ANOMALY":106.5092,"EPHEMERIS_TYPE":0,"CLASSIFICATION_TYPE":"U","NORAD_CAT_ID":52575,"ELEMENT_SET_NO":999,"REV_AT_EPOCH":17944,"BSTAR":0.0042173,"MEAN_MOTION_DOT":0.00120394,"MEAN_MOTION_DDOT":0},{"OBJECT_NAME":"STARLINK-3932","OBJECT_ID":"2022-051AS","EPOCH":"2025-08-07T20:32:29.067936","MEAN_MOTION":15.08841207,"ECCENTRICITY":0.00012,"INCLINATION":53.219,"RA_OF_ASC_NODE":359.0578,"ARG_OF_PERICENTER":88.4326,"MEAN_ANOMALY":271.6804,"EPHEMERIS_TYPE":0,"CLASSIFICATION_TYPE":"U","NORAD_CAT_ID":52576,"ELEMENT_SET_NO":999,"REV_AT_EPOCH":17937,"BSTAR":2.1523e-5,"MEAN_MOTION_DOT":5.5e-7,"MEAN_MOTION_DDOT":0}]
